[{"OBJECT_NAME":"ONEWEB-0092","OBJECT_ID":"2020-020P","EPOCH":"2025-11-16T16:26:03.715008","MEAN_MOTION":13.11413774,"ECCENTRICITY":0.0001434,"INCLINATION":87.8871,"RA_OF_ASC_NODE":63.3779,"ARG_OF_PERICENTER":101.0812,"MEAN_ANOMALY":259.0477,"EPHEMERIS_TYPE":0,"CLASSIFICATION_TYPE":"U","NORAD_CAT_ID":45437,"ELEMENT_SET_NO":999,"REV_AT_EPOCH":27493,"BSTAR":-0.00029011,"MEAN_MOTION_DOT":-9.0e-7,"MEAN_MOTION_DDOT":0},{"OBJECT_NAME":"ONEWEB-0085","OBJECT_ID":"2020-020Q","EPOCH":"2025-11-16T08:09:14.000832","MEAN_MOTION":13.11418363,"ECCENTRICITY":0.00016697,"INCLINATION":87.8861,"RA_OF_ASC_NODE":63.4565,"ARG_OF_PERICENTER":102.483,"MEAN_ANOMALY":257.6485,"EPHEMERIS_TYPE":0,"CLASSIFICATION_TYPE":"U","NORAD_CAT_ID":45438,"ELEMENT_SET_NO":999,"REV_AT_EPOCH":27477,"BSTAR":0.00033857026,"MEAN_MOTION_DOT":1.33e-6,"MEAN_MOTION_DDOT":0},{"OBJECT_NAME":"ONEWEB-0096","OBJECT_ID":"2020-020R","EPOCH":"2025-11-16T17:21:00.431424","MEAN_MOTION":13.11417245,"ECCENTRICITY":0.0001695,"INCLINATION":87.8873,"RA_OF_ASC_NODE":63.3579,"ARG_OF_PERICENTER":108.0531,"MEAN_ANOMALY":252.0781,"EPHEMERIS_TYPE":0,"CLASSIFICATION_TYPE":"U","NORAD_CAT_ID":45439,"ELEMENT_SET_NO":999,"REV_AT_EPOCH":27481,"BSTAR":0.00013196,"MEAN_MOTION_DOT":5.9e-7,"MEAN_MOTION_DDOT":0},{"OBJECT_NAME":"ONEWEB-0037","OBJECT_ID":"2020-020S","EPOCH":"2025-11-16T07:43:34.591296","MEAN_MOTION":13.11418336,"ECCENTRICITY":0.00015184,"INCLINATION":87.8879,"RA_OF_ASC_NODE":63.4058,"ARG_OF_PERICENTER":101.7358,"MEAN_ANOMALY":258.394,"EPHEMERIS_TYPE":0,"CLASSIFICATION_TYPE":"U","NORAD_CAT_ID":45440,"ELEMENT_SET_NO":999,"REV_AT_EPOCH":27479,"BSTAR":-0.0017076002,"MEAN_MOTION_DOT":-5.92e-6,"MEAN_MOTION_DDOT":0},{"OBJECT_NAME":"ONEWEB-0042","OBJECT_ID":"2020-020T","EPOCH":"2025-11-16T17:06:09.225792","MEAN_MOTION":13.1141732,"ECCENTRICITY":0.0001535,"INCLINATION":87.887,"RA_OF_ASC_NODE":63.3602,"ARG_OF_PERICENTER":105.8017,"MEAN_ANOMALY":254.328,"EPHEMERIS_TYPE":0,"CLASSIFICATION_TYPE":"U","NORAD_CAT_ID":45441,"ELEMENT_SET_NO":999,"REV_AT_EPOCH":27481,"BSTAR":-0.0010898,"MEAN_MOTION_DOT":-3.74e-6,"MEAN_MOTION_DDOT":0},{"OBJECT_NAME":"ONEWEB-0098","OBJECT_ID":"2020-020U","EPOCH":"2025-11-16T17:00:14.603904","MEAN_MOTION":13.11418801,"ECCENTRICITY":0.0001673,"INCLINATION":87.8869,"RA_OF_ASC_NODE":63.3731,"ARG_OF_PERICENTER":101.1462,"MEAN_ANOMALY":258.9854,"EPHEMERIS_TYPE":0,"CLASSIFICATION_TYPE":"U","NORAD_CAT_ID":45442,"ELEMENT_SET_NO":999,"REV_AT_EPOCH":27479,"BSTAR":-0.0013645,"MEAN_MOTION_DOT":-4.71e-6,"MEAN_MOTION_DDOT":0},{"OBJECT_NAME":"ONEWEB-0055","OBJECT_ID":"2020-020V","EPOCH":"2025-11-16T07:26:28.860000","MEAN_MOTION":13.11414916,"ECCENTRICITY":0.00017302,"INCLINATION":87.8872,"RA_OF_ASC_NODE":63.4534,"ARG_OF_PERICENTER":102.789,"MEAN_ANOMALY":257.3432,"EPHEMERIS_TYPE":0,"CLASSIFICATION_TYPE":"U","NORAD_CAT_ID":45443,"ELEMENT_SET_NO":999,"REV_AT_EPOCH":27471,"BSTAR":-0.00079633244,"MEAN_MOTION_DOT":-2.7e-6,"MEAN_MOTION_DDOT":0},{"OBJECT_NAME":"ONEWEB-0093","OBJECT_ID":"2020-020W","EPOCH":"2025-11-16T17:50:30.743232","MEAN_MOTION":13.11416169,"ECCENTRICITY":0.0001537,"INCLINATION":87.8872,"RA_OF_ASC_NODE":63.3535,"ARG_OF_PERICENTER":118.5428,"MEAN_ANOMALY":241.5855,"EPHEMERIS_TYPE":0,"CLASSIFICATION_TYPE":"U","NORAD_CAT_ID":45444,"ELEMENT_SET_NO":999,"REV_AT_EPOCH":27483,"BSTAR":0.0014216,"MEAN_MOTION_DOT":5.17e-6,"MEAN_MOTION_DDOT":0},{"OBJECT_NAME":"ONEWEB-0029","OBJECT_ID":"2020-020X","EPOCH":"2025-11-16T16:23:37.813920","MEAN_MOTION":13.11415521,"ECCENTRICITY":0.0001696,"INCLINATION":87.8878,"RA_OF_ASC_NODE":63.3781,"ARG_OF_PERICENTER":108.8168,"MEAN_ANOMALY":251.3144,"EPHEMERIS_TYPE":0,"CLASSIFICATION_TYPE":"U","NORAD_CAT_ID":45445,"ELEMENT_SET_NO":999,"REV_AT_EPOCH":27480,"BSTAR":-0.00024258,"MEAN_MOTION_DOT":-7.3e-7,"MEAN_MOTION_DDOT":0},{"OBJECT_NAME":"ONEWEB-0068","OBJECT_ID":"2020-020Y","EPOCH":"2025-11-16T17:50:06.978048","MEAN_MOTION":13.11415141,"ECCENTRICITY":0.0001723,"INCLINATION":87.8873,"RA_OF_ASC_NODE":63.355,"ARG_OF_PERICENTER":107.9808,"MEAN_ANOMALY":252.1508,"EPHEMERIS_TYPE":0,"CLASSIFICATION_TYPE":"U","NORAD_CAT_ID":45446,"ELEMENT_SET_NO":999,"REV_AT_EPOCH":27475,"BSTAR":0.0010724,"MEAN_MOTION_DOT":3.93e-6,"MEAN_MOTION_DDOT":0},{"OBJECT_NAME":"ONEWEB-0046","OBJECT_ID":"2020-020Z","EPOCH":"2025-11-16T13:58:22.063584","MEAN_MOTION":13.11416469,"ECCENTRICITY":0.00015059,"INCLINATION":87.8871,"RA_OF_ASC_NODE":63.395,"ARG_OF_PERICENTER":109.1754,"MEAN_ANOMALY":250.9537,"EPHEMERIS_TYPE":0,"CLASSIFICATION_TYPE":"U","NORAD_CAT_ID":45447,"ELEMENT_SET_NO":999,"REV_AT_EPOCH":27474,"BSTAR":0.0014420191,"MEAN_MOTION_DOT":5.24e-6,"MEAN_MOTION_DDOT":0},{"OBJECT_NAME":"ONEWEB-0063","OBJECT_ID":"2020-020AA","EPOCH":"2025-11-16T18:19:35.806368","MEAN_MOTION":13.11413908,"ECCENTRICITY":0.00014,"INCLINATION":87.8872,"RA_OF_ASC_NODE":63.357,"ARG_OF_PERICENTER":101.9785,"MEAN_ANOMALY":258.15,"EPHEMERIS_TYPE":0,"CLASSIFICATION_TYPE":"U","NORAD_CAT_ID":45448,"ELEMENT_SET_NO":999,"REV_AT_EPOCH":27485,"BSTAR":-0.00034644,"MEAN_MOTION_DOT":-1.1e-6,"MEAN_MOTION_DDOT":0},{"OBJECT_NAME":"ONEWEB-0019","OBJECT_ID":"2020-020AB","EPOCH":"2025-11-16T17:41:45.295584","MEAN_MOTION":13.11419091,"ECCENTRICITY":0.0001784,"INCLINATION":87.8858,"RA_OF_ASC_NODE":63.3746,"ARG_OF_PERICENTER":103.8068,"MEAN_ANOMALY":256.3258,"EPHEMERIS_TYPE":0,"CLASSIFICATION_TYPE":"U","NORAD_CAT_ID":45449,"ELEMENT_SET_NO":999,"REV_AT_EPOCH":27469,"BSTAR":0.0018184,"MEAN_MOTION_DOT":6.57e-6,"MEAN_MOTION_DDOT":0},{"OBJECT_NAME":"ONEWEB-0094","OBJECT_ID":"2020-020AC","EPOCH":"2025-11-16T12:08:14.315136","MEAN_MOTION":13.17651067,"ECCENTRICITY":0.00017492,"INCLINATION":87.9141,"RA_OF_ASC_NODE":48.1251,"ARG_OF_PERICENTER":102.9221,"MEAN_ANOMALY":257.2106,"EPHEMERIS_TYPE":0,"CLASSIFICATION_TYPE":"U","NORAD_CAT_ID":45450,"ELEMENT_SET_NO":999,"REV_AT_EPOCH":27830,"BSTAR":-0.0001018022,"MEAN_MOTION_DOT":-2.7e-7,"MEAN_MOTION_DDOT":0},{"OBJECT_NAME":"ONEWEB-0087","OBJECT_ID":"2020-020AD","EPOCH":"2025-11-16T16:44:09.863232","MEAN_MOTION":13.11414148,"ECCENTRICITY":0.000181,"INCLINATION":87.888,"RA_OF_ASC_NODE":63.3257,"ARG_OF_PERICENTER":112.6637,"MEAN_ANOMALY":247.4682,"EPHEMERIS_TYPE":0,"CLASSIFICATION_TYPE":"U","NORAD_CAT_ID":45451,"ELEMENT_SET_NO":999,"REV_AT_EPOCH":27473,"BSTAR":-0.0014416,"MEAN_MOTION_DOT":-4.98e-6,"MEAN_MOTION_DDOT":0},{"OBJECT_NAME":"ONEWEB-0082","OBJECT_ID":"2020-020AE","EPOCH":"2025-11-16T16:39:28.874016","MEAN_MOTION":13.11413484,"ECCENTRICITY":0.0001776,"INCLINATION":87.8889,"RA_OF_ASC_NODE":63.3523,"ARG_OF_PERICENTER":110.5235,"MEAN_ANOMALY":249.6083,"EPHEMERIS_TYPE":0,"CLASSIFICATION_TYPE":"U","NORAD_CAT_ID":45452,"ELEMENT_SET_NO":999,"REV_AT_EPOCH":27482,"BSTAR":-0.0012915,"MEAN_MOTION_DOT":-4.45e-6,"MEAN_MOTION_DDOT":0},{"OBJECT_NAME":"ONEWEB-0050","OBJECT_ID":"2020-020AF","EPOCH":"2025-11-16T08:53:22.960896","MEAN_MOTION":14.89348942,"ECCENTRICITY":0.00049177,"INCLINATION":88.9207,"RA_OF_ASC_NODE":262.243,"ARG_OF_PERICENTER":52.3349,"MEAN_ANOMALY":307.8325,"EPHEMERIS_TYPE":0,"CLASSIFICATION_TYPE":"U","NORAD_CAT_ID":45453,"ELEMENT_SET_NO":999,"REV_AT_EPOCH":30869,"BSTAR":0.00057947584,"MEAN_MOTION_DOT":5.517e-5,"MEAN_MOTION_DDOT":0}]
