ONEWEB-0092             
1 45437U 20020P   25320.68476522 -.00000090  00000+0 -29011-3 0  9995
2 45437  87.8871  63.3779 0001434 101.0812 259.0477 13.11413774274935
ONEWEB-0085             
1 45438U 20020Q   25320.33974538  .00000133  00000+0  33857-3 0  9997
2 45438  87.8861  63.4565 0001669 102.4830 257.6485 13.11418363274778
ONEWEB-0096             
1 45439U 20020R   25320.72292166  .00000059  00000+0  13196-3 0  9992
2 45439  87.8873  63.3579 0001695 108.0531 252.0781 13.11417245274816
ONEWEB-0037             
1 45440U 20020S   25320.32192814 -.00000592  00000+0 -17076-2 0  9993
2 45440  87.8879  63.4058 0001518 101.7358 258.3940 13.11418336274793
ONEWEB-0042             
1 45441U 20020T   25320.71260678 -.00000374  00000+0 -10898-2 0  9994
2 45441  87.8870  63.3602 0001535 105.8017 254.3280 13.11417320274813
ONEWEB-0098             
1 45442U 20020U   25320.70850236 -.00000471  00000+0 -13645-2 0  9990
2 45442  87.8869  63.3731 0001673 101.1462 258.9854 13.11418801274790
ONEWEB-0055             
1 45443U 20020V   25320.31005625 -.00000270  00000+0 -79633-3 0  9999
2 45443  87.8872  63.4534 0001730 102.7890 257.3432 13.11414916274713
ONEWEB-0093             
1 45444U 20020W   25320.74341138  .00000517  00000+0  14216-2 0  9996
2 45444  87.8872  63.3535 0001537 118.5428 241.5855 13.11416169274830
ONEWEB-0029             
1 45445U 20020X   25320.68307655 -.00000073  00000+0 -24258-3 0  9993
2 45445  87.8878  63.3781 0001696 108.8168 251.3144 13.11415521274807
ONEWEB-0068             
1 45446U 20020Y   25320.74313632  .00000393  00000+0  10724-2 0  9998
2 45446  87.8873  63.3550 0001723 107.9808 252.1508 13.11415141274754
ONEWEB-0046             
1 45447U 20020Z   25320.58219981  .00000524  00000+0  14420-2 0  9996
2 45447  87.8871  63.3950 0001505 109.1754 250.9537 13.11416469274740
ONEWEB-0063             
1 45448U 20020AA  25320.76360887 -.00000110  00000+0 -34644-3 0  9993
2 45448  87.8872  63.3570 0001400 101.9785 258.1500 13.11413908274855
ONEWEB-0019             
1 45449U 20020AB  25320.73732981  .00000657  00000+0  18184-2 0  9993
2 45449  87.8858  63.3746 0001784 103.8068 256.3258 13.11419091274696
ONEWEB-0094             
1 45450U 20020AC  25320.50572124 -.00000027  00000+0 -10180-3 0  9993
2 45450  87.9141  48.1251 0001749 102.9221 257.2106 13.17651067278309
ONEWEB-0087             
1 45451U 20020AD  25320.69733638 -.00000498  00000+0 -14416-2 0  9990
2 45451  87.8880  63.3257 0001810 112.6637 247.4682 13.11414148274736
ONEWEB-0082             
1 45452U 20020AE  25320.69408419 -.00000445  00000+0 -12915-2 0  9991
2 45452  87.8889  63.3523 0001776 110.5235 249.6083 13.11413484274825
ONEWEB-0050             
1 45453U 20020AF  25320.37040464  .00005517  00000+0  57948-3 0  9998
2 45453  88.9207 262.2430 0004917  52.3349 307.8325 14.89348942308699
